#aV2024 10 29  0  0  0.00000000     288 DD+AD WGS84 FIT  NGA
## 2338 172800.00000000   300.00000000 60612 0.0000000000000
+   31     2  3  4  5  6  7  8  9 10 11 12 13 14 15 16 17 18
+         19 20 21 22 23 24 25 26 27 28 29 30 31 32  0  0  0
+          0  0  0  0  0  0  0  0  0  0  0  0  0  0  0  0  0
+          0  0  0  0  0  0  0  0  0  0  0  0  0  0  0  0  0
+          0  0  0  0  0  0  0  0  0  0  0  0  0  0  0  0  0
++         2  2  2  2  2  2  2  2  2  2  2  2  2  2  2  2  2
++         2  2  2  2  2  2  2  2  2  2  2  2  2  2  0  0  0
++         0  0  0  0  0  0  0  0  0  0  0  0  0  0  0  0  0
++         0  0  0  0  0  0  0  0  0  0  0  0  0  0  0  0  0
++         0  0  0  0  0  0  0  0  0  0  0  0  0  0  0  0  0
%c cc cc ccc ccc cccc cccc cccc cccc ccccc ccccc ccccc ccccc
%c cc cc ccc ccc cccc cccc cccc cccc ccccc ccccc ccccc ccccc
%f  0.0000000  0.000000000  0.00000000000  0.000000000000000
%f  0.0000000  0.000000000  0.00000000000  0.000000000000000
%i    0    0    0    0      0      0      0      0         0
%i    0    0    0    0      0      0      0      0         0
/*      NGA, ST. LOUIS,MO.                                  
/*   EPHEMERIS COMPUTED FROM 2 DAYS OF DATA                 
/*   EPOCHA v9 SMOOTHER                                     
/*   G2296 IERS2010 SATIGS SATAPC                           
*  2024 10 29  0 15  0.00000000
P  2  13762.937304 -22121.818748  -3605.648812   -326.873466                    
V  2   5497.040442  -2351.054438  31677.554433      0.083868                    
P  3   6355.324576 -13547.770374 -22099.608637    584.242813                    
V  3  26881.301174   6251.314614   4032.470177      0.111579                    
P  4   2244.901430 -23350.140600 -12299.910534    469.936187                    
V  4   6493.125376  14466.504551 -26392.706253      0.066528                    
P  5 -21432.181183   6255.164513  14256.876215   -191.272812                    
V  5 -17809.371568  -4829.486605 -24284.576306     -0.012089                    
P  6 -15967.172251  -3101.679506 -20951.903948    -72.878269                    
V  6  17826.163929 -19833.539660 -10506.747876     -0.283223                    
P  7   -236.201245 -19387.021439  18481.507407    -23.874892                    
V  7  16515.403641 -15527.177994 -17009.660401      0.028576                    
P  8   9724.417820 -14544.839233  19736.946437    398.124462                    
V  8  10090.110645  23450.618526  12672.636747      0.109539                    
P  9  -6292.429930 -25536.016049  -3539.197694    419.147086                    
V  9   4164.348516   3194.104766 -31341.464559      0.167507                    
P 10  23161.171189  10666.227143   8255.346848   -175.287108                    
V 10 -10155.713919   -645.934978  29803.534663     -0.138718                    
P 11 -21486.474707   9656.082204 -12168.185580   -747.161430                    
V 11   9357.297127 -12590.516652 -26496.803881     -0.023615                    
P 12 -11394.838600  11989.084292 -21054.411084   -548.353570                    
V 12 -24852.965356  -7993.075137   9065.367990     -0.026001                    
P 13 -13944.692502   5858.615453  21579.354437    683.616848                    
V 13  -5111.028938 -27480.038877   4344.164962      0.017109                    
P 14 -20455.947776 -13102.845153  11051.522788    527.823774                    
V 14  14152.629058    646.978007  26846.502198      0.083347                    
P 15  -7464.632184  16285.016355  19040.238977    221.231816                    
V 15 -13021.941787 -21913.571026  13429.884740      0.044873                    
P 16  24415.989990   -240.024604  10638.471226   -142.699062                    
V 16  12603.693511   6194.758009 -27444.658772      0.098909                    
P 17 -13213.801903 -19601.178693 -11498.096342    579.118156                    
V 17  -1373.891328 -15449.864852  27123.796250     -0.136635                    
P 18    812.527633  18205.858508  19266.996354   -659.337517                    
V 18 -17681.676834  16926.329113 -15490.013818     -0.009284                    
P 19 -15549.549373 -11319.022389 -18646.057796    556.182793                    
V 19  -3637.604036 -22950.296369  16679.126717      0.045786                    
P 20 -26201.305729   1624.307481   3546.350486    369.235908                    
V 20  -4327.929415  -3195.849306 -31320.803909     -0.003403                    
P 21  16807.158536 -19701.832023   2305.127716     98.735975                    
V 21   1438.096256   4260.677308  32295.692687     -0.008728                    
P 22 -24040.485377 -10330.619678   3855.845240    -75.006586                    
V 22   5141.578118  -1547.501385  31446.437509     -0.031476                    
P 23  12360.694512  14825.691372  18379.176321    351.608895                    
V 23 -22930.336824  -3233.985377  17841.884397      0.080683                    
P 24 -13985.026739  22207.445260  -2665.590505   -483.009277                    
V 24  -4906.558882    -28.938069  31171.339243      0.016403                    
P 25   3641.031630  16142.791349 -21169.902907    499.332946                    
V 25 -25703.212604  -4414.648746  -7655.506076     -0.001915                    
P 26  26395.112465   4342.866066  -1258.406773     43.958419                    
V 26  -1813.959143   3214.512962 -30772.317277     -0.098071                    
P 27  14977.862783  -2684.413889  21494.052768    -34.722549                    
V 27   8750.650242  26578.229675  -2321.808274     -0.000752                    
P 28  15064.419882   5198.911466 -21264.199027   -461.352589                    
V 28 -17021.093287  20918.796841  -6944.868473     -0.123981                    
P 29   2942.270344  25928.415347  -4624.890499   -567.919681                    
V 29  -3897.130711  -5067.893067 -31288.162896      0.028033                    
P 30 -10141.783746 -12284.651582  21385.430672   -293.116039                    
V 30  18381.247036 -19679.529118  -2873.101820      0.076311                    
P 31  20847.632288  -5526.350654 -15980.798779   -222.674372                    
V 31 -12302.654062  15518.144980 -21374.855347      0.005943                    
P 32  15370.247170  17161.893511 -13177.787151   -581.042700                    
V 32   3354.402318  16808.118227  25182.380848      0.048091                    
EOF
